start=new Date('2022-03-18T00:00:00.000Z').valueOf();
sats=[{"GP_ID":"198995786","MEAN_MOTION_DOT":"0.00037318","EPOCH":"2022-03-17T22:00:00.999936","REV_AT_EPOCH":"369","EPHEMERIS_TYPE":"0","PERIOD":"91.532","APOAPSIS":"350.589","SEMIMAJOR_AXIS":"6727.837","NORAD_CAT_ID":"51746","SITE":"AFETR","MEAN_MOTION_DDOT":"0.0000000000000","OBJECT_NAME":"STARLINK-3502","FILE":"3363151","MEAN_ANOMALY":"6.4398","ARG_OF_PERICENTER":"80.9529","COUNTRY_CODE":"US","RA_OF_ASC_NODE":"19.1959","ECCENTRICITY":"0.00013190","BSTAR":"0.00026889000000","PERIAPSIS":"348.814","RCS_SIZE":"LARGE","TIME_SYSTEM":"UTC","TLE_LINE2":"2 51746  53.2185  19.1959 0001319  80.9529   6.4398 15.73220506  3699","LAUNCH_DATE":"2022-02-21","ELEMENT_SET_NO":"999","TLE_LINE1":"1 51746U 22016AJ  22076.91667824  .00037318  00000-0  26889-3 0  9992","REF_FRAME":"TEME","INCLINATION":"53.2185","MEAN_MOTION":"15.73220506","MEAN_ELEMENT_THEORY":"SGP4","CLASSIFICATION_TYPE":"U","OBJECT_ID":"2022-016AJ","DECAY_DATE":null,"CENTER_NAME":"EARTH","OBJECT_TYPE":"PAYLOAD"},{"REV_AT_EPOCH":"369","GP_ID":"198995451","EPOCH":"2022-03-17T22:00:00.999936","MEAN_MOTION_DOT":"-0.00041556","APOAPSIS":"350.460","NORAD_CAT_ID":"51747","SEMIMAJOR_AXIS":"6727.726","EPHEMERIS_TYPE":"0","PERIOD":"91.530","OBJECT_NAME":"STARLINK-3446","MEAN_MOTION_DDOT":"0.0000000000000","SITE":"AFETR","PERIAPSIS":"348.721","BSTAR":"-0.00029238000000","ECCENTRICITY":"0.00012920","MEAN_ANOMALY":"343.1296","FILE":"3363151","COUNTRY_CODE":"US","ARG_OF_PERICENTER":"102.3643","RA_OF_ASC_NODE":"19.1988","LAUNCH_DATE":"2022-02-21","TLE_LINE2":"2 51747  53.2195  19.1988 0001292 102.3643 343.1296 15.73259514  3698","RCS_SIZE":"LARGE","TIME_SYSTEM":"UTC","TLE_LINE1":"1 51747U 22016AK  22076.91667824 -.00041556  00000-0 -29238-3 0  9995","REF_FRAME":"TEME","ELEMENT_SET_NO":"999","MEAN_MOTION":"15.73259514","INCLINATION":"53.2195","DECAY_DATE":null,"OBJECT_ID":"2022-016AK","CLASSIFICATION_TYPE":"U","MEAN_ELEMENT_THEORY":"SGP4","OBJECT_TYPE":"PAYLOAD","CENTER_NAME":"EARTH"},{"CLASSIFICATION_TYPE":"U","MEAN_ELEMENT_THEORY":"SGP4","DECAY_DATE":null,"OBJECT_ID":"2022-016AL","CENTER_NAME":"EARTH","OBJECT_TYPE":"PAYLOAD","RCS_SIZE":"LARGE","TIME_SYSTEM":"UTC","LAUNCH_DATE":"2022-02-21","TLE_LINE2":"2 51748  53.2184  19.1933 0000924  77.2422  11.4040 15.73229232  3699","REF_FRAME":"TEME","TLE_LINE1":"1 51748U 22016AL  22076.91667824  .00032695  00000-0  23617-3 0  9993","ELEMENT_SET_NO":"999","INCLINATION":"53.2184","MEAN_MOTION":"15.73229232","SITE":"AFETR","OBJECT_NAME":"STARLINK-3501","MEAN_MOTION_DDOT":"0.0000000000000","MEAN_ANOMALY":"11.4040","FILE":"3363151","COUNTRY_CODE":"US","ARG_OF_PERICENTER":"77.2422","RA_OF_ASC_NODE":"19.1933","PERIAPSIS":"349.055","ECCENTRICITY":"0.00009240","BSTAR":"0.00023617000000","GP_ID":"198995339","EPOCH":"2022-03-17T22:00:00.999936","MEAN_MOTION_DOT":"0.00032695","REV_AT_EPOCH":"369","EPHEMERIS_TYPE":"0","PERIOD":"91.531","APOAPSIS":"350.298","NORAD_CAT_ID":"51748","SEMIMAJOR_AXIS":"6727.812"},{"ELEMENT_SET_NO":"999","REF_FRAME":"TEME","TLE_LINE1":"1 51749U 22016AM  22076.91667824 -.00052373  00000-0 -36973-3 0  9990","MEAN_MOTION":"15.73283791","INCLINATION":"53.2194","TLE_LINE2":"2 51749  53.2194  19.1960 0001253  73.3692  13.3888 15.73283791  3694","LAUNCH_DATE":"2022-02-21","RCS_SIZE":"LARGE","TIME_SYSTEM":"UTC","OBJECT_TYPE":"PAYLOAD","CENTER_NAME":"EARTH","DECAY_DATE":null,"OBJECT_ID":"2022-016AM","MEAN_ELEMENT_THEORY":"SGP4","CLASSIFICATION_TYPE":"U","APOAPSIS":"350.364","NORAD_CAT_ID":"51749","SEMIMAJOR_AXIS":"6727.656","EPHEMERIS_TYPE":"0","PERIOD":"91.528","REV_AT_EPOCH":"369","GP_ID":"198995563","MEAN_MOTION_DOT":"-0.00052373","EPOCH":"2022-03-17T22:00:00.999936","BSTAR":"-0.00036973000000","ECCENTRICITY":"0.00012530","PERIAPSIS":"348.678","FILE":"3363151","MEAN_ANOMALY":"13.3888","ARG_OF_PERICENTER":"73.3692","COUNTRY_CODE":"US","RA_OF_ASC_NODE":"19.1960","MEAN_MOTION_DDOT":"0.0000000000000","OBJECT_NAME":"STARLINK-3451","SITE":"AFETR"},{"MEAN_ANOMALY":"347.7328","FILE":"3363151","RA_OF_ASC_NODE":"19.1911","COUNTRY_CODE":"US","ARG_OF_PERICENTER":"102.2409","PERIAPSIS":"348.966","ECCENTRICITY":"0.00010130","BSTAR":"0.00008523100000","SITE":"AFETR","OBJECT_NAME":"STARLINK-3505","MEAN_MOTION_DDOT":"0.0000000000000","EPHEMERIS_TYPE":"0","PERIOD":"91.531","APOAPSIS":"350.329","NORAD_CAT_ID":"51750","SEMIMAJOR_AXIS":"6727.782","GP_ID":"198995899","EPOCH":"2022-03-17T22:00:00.999936","MEAN_MOTION_DOT":"0.00011378","REV_AT_EPOCH":"369","CENTER_NAME":"EARTH","OBJECT_TYPE":"PAYLOAD","CLASSIFICATION_TYPE":"U","MEAN_ELEMENT_THEORY":"SGP4","OBJECT_ID":"2022-016AN","DECAY_DATE":null,"TLE_LINE1":"1 51750U 22016AN  22076.91667824  .00011378  00000-0  85231-4 0  9992","REF_FRAME":"TEME","ELEMENT_SET_NO":"999","MEAN_MOTION":"15.73239598","INCLINATION":"53.2175","RCS_SIZE":"LARGE","TIME_SYSTEM":"UTC","LAUNCH_DATE":"2022-02-21","TLE_LINE2":"2 51750  53.2175  19.1911 0001013 102.2409 347.7328 15.73239598  3692"},{"SITE":"AFETR","MEAN_MOTION_DDOT":"0.0000000000000","OBJECT_NAME":"STARLINK-3506","FILE":"3363151","MEAN_ANOMALY":"358.5952","COUNTRY_CODE":"US","ARG_OF_PERICENTER":"89.5652","RA_OF_ASC_NODE":"19.1934","BSTAR":"-0.00060524000000","ECCENTRICITY":"0.00011410","PERIAPSIS":"348.785","GP_ID":"198995115","MEAN_MOTION_DOT":"-0.00084970","EPOCH":"2022-03-17T22:00:00.999936","REV_AT_EPOCH":"369","EPHEMERIS_TYPE":"0","PERIOD":"91.529","APOAPSIS":"350.320","SEMIMAJOR_AXIS":"6727.688","NORAD_CAT_ID":"51751","MEAN_ELEMENT_THEORY":"SGP4","CLASSIFICATION_TYPE":"U","DECAY_DATE":null,"OBJECT_ID":"2022-016AP","CENTER_NAME":"EARTH","OBJECT_TYPE":"PAYLOAD","RCS_SIZE":"LARGE","TIME_SYSTEM":"UTC","TLE_LINE2":"2 51751  53.2195  19.1934 0001141  89.5652 358.5952 15.73272828  3695","LAUNCH_DATE":"2022-02-21","ELEMENT_SET_NO":"999","REF_FRAME":"TEME","TLE_LINE1":"1 51751U 22016AP  22076.91667824 -.00084970  00000-0 -60524-3 0  9990","INCLINATION":"53.2195","MEAN_MOTION":"15.73272828"},{"MEAN_MOTION":"15.73221893","INCLINATION":"53.2177","ELEMENT_SET_NO":"999","TLE_LINE1":"1 51752U 22016AQ  22076.91667824  .00033556  00000-0  24232-3 0  9999","REF_FRAME":"TEME","TLE_LINE2":"2 51752  53.2177  19.1902 0001362  87.3615   3.2325 15.73221893  3695","LAUNCH_DATE":"2022-02-21","TIME_SYSTEM":"UTC","RCS_SIZE":"LARGE","OBJECT_TYPE":"PAYLOAD","CENTER_NAME":"EARTH","DECAY_DATE":null,"OBJECT_ID":"2022-016AQ","MEAN_ELEMENT_THEORY":"SGP4","CLASSIFICATION_TYPE":"U","SEMIMAJOR_AXIS":"6727.833","NORAD_CAT_ID":"51752","APOAPSIS":"350.614","PERIOD":"91.532","EPHEMERIS_TYPE":"0","REV_AT_EPOCH":"369","MEAN_MOTION_DOT":"0.00033556","EPOCH":"2022-03-17T22:00:00.999936","GP_ID":"198995675","ECCENTRICITY":"0.00013620","BSTAR":"0.00024232000000","PERIAPSIS":"348.781","ARG_OF_PERICENTER":"87.3615","COUNTRY_CODE":"US","RA_OF_ASC_NODE":"19.1902","FILE":"3363151","MEAN_ANOMALY":"3.2325","MEAN_MOTION_DDOT":"0.0000000000000","OBJECT_NAME":"STARLINK-3511","SITE":"AFETR"},{"PERIOD":"91.533","EPHEMERIS_TYPE":"0","NORAD_CAT_ID":"51753","SEMIMAJOR_AXIS":"6727.898","APOAPSIS":"350.580","MEAN_MOTION_DOT":"0.00032143","EPOCH":"2022-03-17T22:00:00.999936","GP_ID":"198995227","REV_AT_EPOCH":"369","ARG_OF_PERICENTER":"83.7253","COUNTRY_CODE":"US","RA_OF_ASC_NODE":"19.1915","FILE":"3363151","MEAN_ANOMALY":"5.5748","ECCENTRICITY":"0.00012150","BSTAR":"0.00023257000000","PERIAPSIS":"348.945","SITE":"AFETR","MEAN_MOTION_DDOT":"0.0000000000000","OBJECT_NAME":"STARLINK-3507","MEAN_MOTION":"15.73199066","INCLINATION":"53.2195","ELEMENT_SET_NO":"999","TLE_LINE1":"1 51753U 22016AR  22076.91667824  .00032143  00000-0  23257-3 0  9997","REF_FRAME":"TEME","TIME_SYSTEM":"UTC","RCS_SIZE":"LARGE","TLE_LINE2":"2 51753  53.2195  19.1915 0001215  83.7253   5.5748 15.73199066  3695","LAUNCH_DATE":"2022-02-21","CENTER_NAME":"EARTH","OBJECT_TYPE":"PAYLOAD","MEAN_ELEMENT_THEORY":"SGP4","CLASSIFICATION_TYPE":"U","OBJECT_ID":"2022-016AR","DECAY_DATE":null},{"OBJECT_TYPE":"PAYLOAD","CENTER_NAME":"EARTH","DECAY_DATE":null,"OBJECT_ID":"2022-016AS","MEAN_ELEMENT_THEORY":"SGP4","CLASSIFICATION_TYPE":"U","MEAN_MOTION":"15.73229950","INCLINATION":"53.2185","ELEMENT_SET_NO":"999","REF_FRAME":"TEME","TLE_LINE1":"1 51754U 22016AS  22076.91667824  .00033866  00000-0  24443-3 0  9999","TLE_LINE2":"2 51754  53.2185  19.1872 0000895  83.9375   7.9196 15.73229950  3696","LAUNCH_DATE":"2022-02-21","TIME_SYSTEM":"UTC","RCS_SIZE":"LARGE","BSTAR":"0.00024443000000","ECCENTRICITY":"0.00008950","PERIAPSIS":"349.073","COUNTRY_CODE":"US","ARG_OF_PERICENTER":"83.9375","RA_OF_ASC_NODE":"19.1872","FILE":"3363151","MEAN_ANOMALY":"7.9196","MEAN_MOTION_DDOT":"0.0000000000000","OBJECT_NAME":"STARLINK-3457","SITE":"AFETR","NORAD_CAT_ID":"51754","SEMIMAJOR_AXIS":"6727.810","APOAPSIS":"350.277","PERIOD":"91.531","EPHEMERIS_TYPE":"0","REV_AT_EPOCH":"369","MEAN_MOTION_DOT":"0.00033866","EPOCH":"2022-03-17T22:00:00.999936","GP_ID":"198995787"},{"INCLINATION":"53.2195","MEAN_MOTION":"15.73209531","TLE_LINE1":"1 51755U 22016AT  22076.91667824  .00033448  00000-0  24169-3 0  9991","REF_FRAME":"TEME","ELEMENT_SET_NO":"999","TIME_SYSTEM":"UTC","RCS_SIZE":"LARGE","LAUNCH_DATE":"2022-02-21","TLE_LINE2":"2 51755  53.2195  19.1877 0001234 100.6816 350.5212 15.73209531  3697","CENTER_NAME":"EARTH","OBJECT_TYPE":"PAYLOAD","CLASSIFICATION_TYPE":"U","MEAN_ELEMENT_THEORY":"SGP4","DECAY_DATE":null,"OBJECT_ID":"2022-016AT","PERIOD":"91.533","EPHEMERIS_TYPE":"0","NORAD_CAT_ID":"51755","SEMIMAJOR_AXIS":"6727.868","APOAPSIS":"350.563","EPOCH":"2022-03-17T22:00:00.999936","MEAN_MOTION_DOT":"0.00033448","GP_ID":"198995452","REV_AT_EPOCH":"369","COUNTRY_CODE":"US","ARG_OF_PERICENTER":"100.6816","RA_OF_ASC_NODE":"19.1877","MEAN_ANOMALY":"350.5212","FILE":"3363151","PERIAPSIS":"348.903","ECCENTRICITY":"0.00012340","BSTAR":"0.00024169000000","SITE":"AFETR","OBJECT_NAME":"STARLINK-3460","MEAN_MOTION_DDOT":"0.0000000000000"}];
